STARLINK-31973          
1 59943U 24106X   26068.12201786 -.00001228  00000+0 -35144-4 0  9997
2 59943  43.0021 335.9351 0000602 246.2423 113.8366 15.27567779100434
TEVEL2-2                
1 63219U 25052K   26068.64848259  .00020339  00000+0  69428-3 0  9991
2 63219  97.3987 324.7700 0004693 105.7930 254.3828 15.30343745 54855
